NORAD_CAT_ID,OBJECT_NAME,OBJECT_TYPE,EPOCH,MEAN_MOTION,ECCENTRICITY,INCLINATION,RA_OF_ASC_NODE,ARG_OF_PERICENTER,MEAN_ANOMALY,BSTAR,MEAN_MOTION_DOT,MEAN_MOTION_DDOT,TLE_LINE0,TLE_LINE1,TLE_LINE2,SEMIMAJOR_AXIS,PERIOD,APOGEE,PERIGEE,DECAYED
55939.0,STARLINK-5918,PAYLOAD,2024-03-12 10:11:14,14.98334695,0.0002424,70.0002,318.1198,258.9749,101.1138,-5.76e-05,-7.8e-06,0.0,0 STARLINK-5918,1 55939U 23037AB  24072.42447278 -.00000780  00000-0 -57600-4 0  9998,2 55939  70.0002 318.1198 0002424 258.9749 101.1138 14.98334695 55387,6950.178,96.107,573.728,570.359,0.0
55939.0,STARLINK-5918,PAYLOAD,2024-03-12 23:00:18,14.98339289,0.0002533,70.0,316.7742,264.0263,96.0607,-0.00010754,-1.376e-05,0.0,0 STARLINK-5918,1 55939U 23037AB  24072.95854853 -.00001376  00000-0 -10754-3 0  9997,2 55939  70.0000 316.7742 0002533 264.0263  96.0607 14.98339289 55123,6950.164,96.106,573.79,570.269,0.0
55939.0,STARLINK-5918,PAYLOAD,2024-03-13 02:12:34,14.98337238,0.0002612,69.9999,316.4379,264.5461,95.54,-0.00011587,-1.475e-05,0.0,0 STARLINK-5918,1 55939U 23037AB  24073.09206935 -.00001475  00000-0 -11587-3 0  9990,2 55939  69.9999 316.4379 0002612 264.5461  95.5400 14.98337238 55142,6950.171,96.107,573.851,570.22,0.0
55939.0,STARLINK-5918,PAYLOAD,2024-03-14 02:14:35,14.98333157,0.0002613,69.9996,313.9128,268.5561,91.5299,1.7013e-05,1.1e-06,0.0,0 STARLINK-5918,1 55939U 23037AB  24074.09346600  .00000110  00000-0  17013-4 0  9999,2 55939  69.9996 313.9128 0002613 268.5561  91.5299 14.98333157 55631,6950.183,96.107,573.864,570.232,0.0
55939.0,STARLINK-5918,PAYLOAD,2024-03-14 21:28:12,14.98328803,0.0002614,69.9998,311.893,269.0054,91.0806,-3.4553e-06,-1.34e-06,0.0,0 STARLINK-5918,1 55939U 23037AB  24074.89458868 -.00000134  00000-0 -34553-5 0  9994,2 55939  69.9998 311.8930 0002614 269.0054  91.0806 14.98328803 55412,6950.197,96.107,573.878,570.245,0.0
55939.0,STARLINK-5918,PAYLOAD,2024-03-15 02:16:36,14.98328956,0.0002623,69.9998,311.3877,270.3428,89.743,-6.6994e-06,-1.73e-06,0.0,0 STARLINK-5918,1 55939U 23037AB  24075.09486887 -.00000173  00000-0 -66994-5 0  9996,2 55939  69.9998 311.3877 0002623 270.3428  89.7430 14.98328956 55783,6950.196,96.107,573.884,570.238,0.0
55939.0,STARLINK-5918,PAYLOAD,2024-03-16 15:07:41,14.98328901,0.000267,69.9993,307.5153,276.0978,83.9876,3.1383e-05,2.81e-06,0.0,0 STARLINK-5918,1 55939U 23037AB  24076.63034696  .00000281  00000-0  31383-4 0  9995,2 55939  69.9993 307.5153 0002670 276.0978  83.9876 14.98328901 55675,6950.196,96.107,573.917,570.206,0.0
55939.0,STARLINK-5918,PAYLOAD,2024-03-16 19:56:06,14.98328113,0.0002778,69.9989,307.0116,267.4444,92.6397,1.8616e-05,1.29e-06,0.0,0 STARLINK-5918,1 55939U 23037AB  24076.83062701  .00000129  00000-0  18616-4 0  9990,2 55939  69.9989 307.0116 0002778 267.4444  92.6397 14.98328113 56047,6950.199,96.107,573.994,570.133,0.0
55939.0,STARLINK-5918,PAYLOAD,2024-03-16 21:32:14,14.98329417,0.0002849,69.9987,306.8427,266.3962,93.6871,-4.3946e-06,-1.45e-06,0.0,0 STARLINK-5918,1 55939U 23037AB  24076.89738677 -.00000145  00000-0 -43946-5 0  9993,2 55939  69.9987 306.8427 0002849 266.3962  93.6871 14.98329417 55718,6950.195,96.107,574.04,570.08,0.0
55939.0,STARLINK-5918,PAYLOAD,2024-03-17 00:44:30,14.98329722,0.0002777,69.9989,306.5064,264.1246,95.9597,3.4688e-06,-5.2e-07,0.0,0 STARLINK-5918,1 55939U 23037AB  24077.03090629 -.00000052  00000-0  34688-5 0  9997,2 55939  69.9989 306.5064 0002777 264.1246  95.9597 14.98329722 55736,6950.194,96.107,573.989,570.129,0.0
55939.0,STARLINK-5918,PAYLOAD,2024-03-17 19:58:07,14.98328313,0.0002811,69.9988,304.4868,262.9088,97.1752,-9.0939e-06,-2.01e-06,0.0,0 STARLINK-5918,1 55939U 23037AB  24077.83202712 -.00000201  00000-0 -90939-5 0  9991,2 55939  69.9988 304.4868 0002811 262.9088  97.1752 14.98328313 56196,6950.198,96.107,574.017,570.109,0.0
55939.0,STARLINK-5918,PAYLOAD,2024-03-17 21:34:15,14.98328181,0.0002814,69.9988,304.3186,263.0619,97.022,-9.533e-06,-2.07e-06,0.0,0 STARLINK-5918,1 55939U 23037AB  24077.89878728 -.00000207  00000-0 -95330-5 0  9999,2 55939  69.9988 304.3186 0002814 263.0619  97.0220 14.98328181 55868,6950.199,96.107,574.019,570.108,0.0
55939.0,STARLINK-5918,PAYLOAD,2024-03-18 00:46:31,14.98329448,0.0002824,69.9988,303.9822,265.8291,94.2545,5.6415e-06,-2.6e-07,0.0,0 STARLINK-5918,1 55939U 23037AB  24078.03230626 -.00000026  00000-0  56415-5 0  9994,2 55939  69.9988 303.9822 0002824 265.8291  94.2545 14.98329448 55885,6950.195,96.107,574.022,570.097,0.0
55939.0,STARLINK-5918,PAYLOAD,2024-03-18 21:36:15,14.98331132,0.0002786,69.9986,301.7934,265.7362,94.3479,2.9764e-05,2.62e-06,0.0,0 STARLINK-5918,1 55939U 23037AB  24078.90018452  .00000262  00000-0  29764-4 0  9998,2 55939  69.9986 301.7934 0002786 265.7362  94.3479 14.98331132 56014,6950.189,96.107,573.991,570.118,0.0
55939.0,STARLINK-5918,PAYLOAD,2024-03-19 00:48:32,14.98331855,0.0002779,69.9986,301.4567,266.3183,93.7658,3.6627e-05,3.44e-06,0.0,0 STARLINK-5918,1 55939U 23037AB  24079.03370371  .00000344  00000-0  36627-4 0  9991,2 55939  69.9986 301.4567 0002779 266.3183  93.7658 14.98331855 56376,6950.187,96.107,573.984,570.121,0.0
55939.0,STARLINK-5918,PAYLOAD,2024-03-20 00:50:33,14.98330374,0.0002772,69.9985,298.931,267.8232,92.261,2.8171e-05,2.43e-06,0.0,0 STARLINK-5918,1 55939U 23037AB  24080.03510469  .00000243  00000-0  28171-4 0  9990,2 55939  69.9985 298.9310 0002772 267.8232  92.2610 14.98330374 56529,6950.192,96.107,573.983,570.13,0.0
55939.0,STARLINK-5918,PAYLOAD,2024-03-20 13:39:37,14.9833159,0.0002733,69.9985,297.5846,267.2061,92.8785,-8.3815e-06,-1.93e-06,0.0,0 STARLINK-5918,1 55939U 23037AB  24080.56918490 -.00000193  00000-0 -83815-5 0  9997,2 55939  69.9985 297.5846 0002733 267.2061  92.8785 14.98331590 56260,6950.188,96.107,573.952,570.153,0.0
55939.0,STARLINK-5918,PAYLOAD,2024-03-20 21:40:17,14.983308,0.0002752,69.9985,296.7429,267.2465,92.8379,-1.7216e-05,-2.98e-06,0.0,0 STARLINK-5918,1 55939U 23037AB  24080.90298526 -.00000298  00000-0 -17216-4 0  9993,2 55939  69.9985 296.7429 0002752 267.2465  92.8379 14.98330800 56315,6950.19,96.107,573.968,570.143,0.0
55939.0,STARLINK-5918,PAYLOAD,2024-03-21 13:41:38,14.98331545,0.0002816,69.9982,295.0592,269.0185,91.0651,3.2204e-05,2.91e-06,0.0,0 STARLINK-5918,1 55939U 23037AB  24081.57058271  .00000291  00000-0  32204-4 0  9993,2 55939  69.9982 295.0592 0002816 269.0185  91.0651 14.98331545 56754,6950.188,96.107,574.01,570.096,0.0
55939.0,STARLINK-5918,PAYLOAD,2024-03-21 21:42:18,14.98333666,0.00028,69.9982,294.2177,268.3479,91.7359,5.1853e-05,5.26e-06,0.0,0 STARLINK-5918,1 55939U 23037AB  24081.90438015  .00000526  00000-0  51853-4 0  9990,2 55939  69.9982 294.2177 0002800 268.3479  91.7359 14.98333666 56461,6950.182,96.107,573.993,570.101,0.0
55939.0,STARLINK-5918,PAYLOAD,2024-03-22 00:54:34,14.98334203,0.0002795,69.9982,293.881,268.3351,91.7488,5.6003e-05,5.75e-06,0.0,0 STARLINK-5918,1 55939U 23037AB  24082.03789934  .00000575  00000-0  56003-4 0  9990,2 55939  69.9982 293.8810 0002795 268.3351  91.7488 14.98334203 56485,6950.18,96.107,573.987,570.102,0.0
55939.0,STARLINK-5918,PAYLOAD,2024-03-22 20:08:11,14.98330412,0.0002802,69.9983,291.861,267.3323,92.7515,7.4836e-06,-4e-08,0.0,0 STARLINK-5918,1 55939U 23037AB  24082.83902148 -.00000004  00000-0  74836-5 0  9995,2 55939  69.9983 291.8610 0002802 267.3323  92.7515 14.98330412 56940,6950.192,96.107,574.004,570.109,0.0
55939.0,STARLINK-5918,PAYLOAD,2024-03-22 21:44:19,14.9833055,0.00028,69.9983,291.6927,267.3681,92.7157,8.7138e-06,1.1e-07,0.0,0 STARLINK-5918,1 55939U 23037AB  24082.90578130  .00000011  00000-0  87138-5 0  9999,2 55939  69.9983 291.6927 0002800 267.3681  92.7157 14.98330550 56613,6950.191,96.107,574.002,570.11,0.0
55939.0,STARLINK-5918,PAYLOAD,2024-03-23 20:10:12,14.98330804,0.0002712,69.9981,289.3343,266.3372,93.7477,-3.4623e-05,-5.06e-06,0.0,0 STARLINK-5918,1 55939U 23037AB  24083.84042219 -.00000506  00000-0 -34623-4 0  9998,2 55939  69.9981 289.3343 0002712 266.3372  93.7477 14.98330804 57096,6950.19,96.107,573.94,570.171,0.0
55939.0,STARLINK-5918,PAYLOAD,2024-03-23 21:46:20,14.98329248,0.0002676,69.9983,289.1663,263.7012,96.3842,-4.7781e-05,-6.63e-06,0.0,0 STARLINK-5918,1 55939U 23037AB  24083.90718346 -.00000663  00000-0 -47781-4 0  9999,2 55939  69.9983 289.1663 0002676 263.7012  96.3842 14.98329248 56760,6950.195,96.107,573.92,570.2,0.0
55939.0,STARLINK-5918,PAYLOAD,2024-03-24 13:47:40,14.98332299,0.0002907,69.9977,287.4816,268.2769,91.8057,2.8978e-05,2.53e-06,0.0,0 STARLINK-5918,1 55939U 23037AB  24084.57477892  .00000253  00000-0  28978-4 0  9991,2 55939  69.9977 287.4816 0002907 268.2769  91.8057 14.98332299 56869,6950.186,96.107,574.071,570.03,0.0
55939.0,STARLINK-5918,PAYLOAD,2024-03-24 21:48:21,14.98335296,0.0003012,69.9975,286.6412,270.9646,89.1168,5.3843e-05,5.5e-06,0.0,0 STARLINK-5918,1 55939U 23037AB  24084.90857651  .00000550  00000-0  53843-4 0  9992,2 55939  69.9975 286.6412 0003012 270.9646  89.1168 14.98335296 57259,6950.177,96.107,574.135,569.948,0.0
55939.0,STARLINK-5918,PAYLOAD,2024-03-25 13:49:41,14.98329173,0.000305,69.9976,284.9578,270.1884,89.8925,1.8059e-05,1.22e-06,0.0,0 STARLINK-5918,1 55939U 23037AB  24085.57618045  .00000122  00000-0  18059-4 0  9993,2 55939  69.9976 284.9578 0003050 270.1884  89.8925 14.98329173 57358,6950.195,96.107,574.18,569.941,0.0
55939.0,STARLINK-5918,PAYLOAD,2024-03-25 21:50:22,14.98328435,0.000292,69.999,284.1167,270.9032,89.1793,6.5584e-05,6.9e-06,0.0,0 STARLINK-5918,1 55939U 23037AB  24085.90997972  .00000690  00000-0  65584-4 0  9994,2 55939  69.9990 284.1167 0002920 270.9032  89.1793 14.98328435 57062,6950.198,96.107,574.092,570.033,0.0
55939.0,STARLINK-5918,PAYLOAD,2024-03-26 13:51:43,14.98328882,0.0002757,69.9994,282.4337,272.0177,88.0667,-7.5621e-05,-9.95e-06,0.0,0 STARLINK-5918,1 55939U 23037AB  24086.57758370 -.00000995  00000-0 -75621-4 0  9998,2 55939  69.9994 282.4337 0002757 272.0177  88.0667 14.98328882 57500,6950.196,96.107,573.978,570.145,0.0
